CCSDS_OMM_VERS = 2.0
CREATION_DATE  = 
ORIGINATOR     = 

OBJECT_NAME    = TJS-20
OBJECT_ID      = 2025-238A
CENTER_NAME    = EARTH
REF_FRAME      = TEME
TIME_SYSTEM    = UTC
MEAN_ELEMENT_THEORY = SGP/SGP4

EPOCH          = 2025-11-21T12:41:23.218080
MEAN_MOTION    = 1.00269979
ECCENTRICITY   = .0001484
INCLINATION    = 5.9357
RA_OF_ASC_NODE = 300.4110
ARG_OF_PERICENTER = 98.2780
MEAN_ANOMALY   = 274.9270

EPHEMERIS_TYPE = 0
CLASSIFICATION_TYPE = U
NORAD_CAT_ID   = 66142
ELEMENT_SET_NO = 999
REV_AT_EPOCH   = 25
BSTAR          = 0
MEAN_MOTION_DOT = .43E-6
MEAN_MOTION_DDOT = 0

CCSDS_OMM_VERS = 2.0
CREATION_DATE  = 
ORIGINATOR     = 

OBJECT_NAME    = CZ-5 R/B
OBJECT_ID      = 2025-238B
CENTER_NAME    = EARTH
REF_FRAME      = TEME
TIME_SYSTEM    = UTC
MEAN_ELEMENT_THEORY = SGP/SGP4

EPOCH          = 2025-11-21T06:34:49.139040
MEAN_MOTION    = 1.95056524
ECCENTRICITY   = .7585995
INCLINATION    = 16.2602
RA_OF_ASC_NODE = 263.7257
ARG_OF_PERICENTER = 182.0923
MEAN_ANOMALY   = 170.3537

EPHEMERIS_TYPE = 0
CLASSIFICATION_TYPE = U
NORAD_CAT_ID   = 66143
ELEMENT_SET_NO = 999
REV_AT_EPOCH   = 57
BSTAR          = .20039E-2
MEAN_MOTION_DOT = .99356E-3
MEAN_MOTION_DDOT = .16243E-5

CCSDS_OMM_VERS = 2.0
CREATION_DATE  = 
ORIGINATOR     = 

OBJECT_NAME    = SPAINSAT NG II
OBJECT_ID      = 2025-239A
CENTER_NAME    = EARTH
REF_FRAME      = TEME
TIME_SYSTEM    = UTC
MEAN_ELEMENT_THEORY = SGP/SGP4

EPOCH          = 2025-11-17T20:11:51.104544
MEAN_MOTION    = 1.04198281
ECCENTRICITY   = .78696251
INCLINATION    = 19.9038
RA_OF_ASC_NODE = 243.4991
ARG_OF_PERICENTER = 184.0240
MEAN_ANOMALY   = 159.6654

EPHEMERIS_TYPE = 0
CLASSIFICATION_TYPE = U
NORAD_CAT_ID   = 66144
ELEMENT_SET_NO = 999
REV_AT_EPOCH   = 29
BSTAR          = 0
MEAN_MOTION_DOT = -.354E-5
MEAN_MOTION_DDOT = 0

CCSDS_OMM_VERS = 2.0
CREATION_DATE  = 
ORIGINATOR     = 

OBJECT_NAME    = STARLINK-35318
OBJECT_ID      = 2025-240A
CENTER_NAME    = EARTH
REF_FRAME      = TEME
TIME_SYSTEM    = UTC
MEAN_ELEMENT_THEORY = SGP/SGP4

EPOCH          = 2025-11-20T23:33:14.173056
MEAN_MOTION    = 15.39640211
ECCENTRICITY   = .0001059
INCLINATION    = 53.1585
RA_OF_ASC_NODE = 209.2464
ARG_OF_PERICENTER = 83.6833
MEAN_ANOMALY   = 276.4293

EPHEMERIS_TYPE = 0
CLASSIFICATION_TYPE = U
NORAD_CAT_ID   = 66146
ELEMENT_SET_NO = 999
REV_AT_EPOCH   = 537
BSTAR          = .127E-2
MEAN_MOTION_DOT = .5077E-3
MEAN_MOTION_DDOT = 0

CCSDS_OMM_VERS = 2.0
CREATION_DATE  = 
ORIGINATOR     = 

OBJECT_NAME    = STARLINK-33948
OBJECT_ID      = 2025-240B
CENTER_NAME    = EARTH
REF_FRAME      = TEME
TIME_SYSTEM    = UTC
MEAN_ELEMENT_THEORY = SGP/SGP4

EPOCH          = 2025-11-21T12:53:27.199968
MEAN_MOTION    = 15.39696847
ECCENTRICITY   = .0001538
INCLINATION    = 53.1595
RA_OF_ASC_NODE = 206.3134
ARG_OF_PERICENTER = 127.2869
MEAN_ANOMALY   = 232.8277

EPHEMERIS_TYPE = 0
CLASSIFICATION_TYPE = U
NORAD_CAT_ID   = 66147
ELEMENT_SET_NO = 999
REV_AT_EPOCH   = 546
BSTAR          = -.10376E-2
MEAN_MOTION_DOT = -.41781E-3
MEAN_MOTION_DDOT = 0

CCSDS_OMM_VERS = 2.0
CREATION_DATE  = 
ORIGINATOR     = 

OBJECT_NAME    = STARLINK-35081
OBJECT_ID      = 2025-240C
CENTER_NAME    = EARTH
REF_FRAME      = TEME
TIME_SYSTEM    = UTC
MEAN_ELEMENT_THEORY = SGP/SGP4

EPOCH          = 2025-11-21T04:45:54.065088
MEAN_MOTION    = 15.49558066
ECCENTRICITY   = .0001586
INCLINATION    = 53.1594
RA_OF_ASC_NODE = 207.7534
ARG_OF_PERICENTER = 141.2386
MEAN_ANOMALY   = 218.8738

EPHEMERIS_TYPE = 0
CLASSIFICATION_TYPE = U
NORAD_CAT_ID   = 66148
ELEMENT_SET_NO = 999
REV_AT_EPOCH   = 536
BSTAR          = -.28375E-2
MEAN_MOTION_DOT = -.156518E-2
MEAN_MOTION_DDOT = 0

CCSDS_OMM_VERS = 2.0
CREATION_DATE  = 
ORIGINATOR     = 

OBJECT_NAME    = STARLINK-35601
OBJECT_ID      = 2025-240D
CENTER_NAME    = EARTH
REF_FRAME      = TEME
TIME_SYSTEM    = UTC
MEAN_ELEMENT_THEORY = SGP/SGP4

EPOCH          = 2025-11-21T16:00:05.000256
MEAN_MOTION    = 15.39571990
ECCENTRICITY   = .0000921
INCLINATION    = 53.1590
RA_OF_ASC_NODE = 205.8546
ARG_OF_PERICENTER = 93.6562
MEAN_ANOMALY   = 188.0005

EPHEMERIS_TYPE = 0
CLASSIFICATION_TYPE = U
NORAD_CAT_ID   = 66149
ELEMENT_SET_NO = 999
REV_AT_EPOCH   = 551
BSTAR          = .14244E-2
MEAN_MOTION_DOT = .5691E-3
MEAN_MOTION_DDOT = 0

CCSDS_OMM_VERS = 2.0
CREATION_DATE  = 
ORIGINATOR     = 

OBJECT_NAME    = STARLINK-35605
OBJECT_ID      = 2025-240E
CENTER_NAME    = EARTH
REF_FRAME      = TEME
TIME_SYSTEM    = UTC
MEAN_ELEMENT_THEORY = SGP/SGP4

EPOCH          = 2025-11-21T12:42:34.627680
MEAN_MOTION    = 15.45001665
ECCENTRICITY   = .000294
INCLINATION    = 53.1591
RA_OF_ASC_NODE = 206.2654
ARG_OF_PERICENTER = 345.6158
MEAN_ANOMALY   = 14.4765

EPHEMERIS_TYPE = 0
CLASSIFICATION_TYPE = U
NORAD_CAT_ID   = 66150
ELEMENT_SET_NO = 999
REV_AT_EPOCH   = 541
BSTAR          = -.82703E-2
MEAN_MOTION_DOT = -.377955E-2
MEAN_MOTION_DDOT = 0

CCSDS_OMM_VERS = 2.0
CREATION_DATE  = 
ORIGINATOR     = 

OBJECT_NAME    = STARLINK-35540
OBJECT_ID      = 2025-240F
CENTER_NAME    = EARTH
REF_FRAME      = TEME
TIME_SYSTEM    = UTC
MEAN_ELEMENT_THEORY = SGP/SGP4

EPOCH          = 2025-11-21T01:49:25.407264
MEAN_MOTION    = 15.49339382
ECCENTRICITY   = .0001029
INCLINATION    = 53.1593
RA_OF_ASC_NODE = 208.4111
ARG_OF_PERICENTER = 79.0557
MEAN_ANOMALY   = 281.0568

EPHEMERIS_TYPE = 0
CLASSIFICATION_TYPE = U
NORAD_CAT_ID   = 66151
ELEMENT_SET_NO = 999
REV_AT_EPOCH   = 534
BSTAR          = .13011E-2
MEAN_MOTION_DOT = .72665E-3
MEAN_MOTION_DDOT = 0

CCSDS_OMM_VERS = 2.0
CREATION_DATE  = 
ORIGINATOR     = 

OBJECT_NAME    = STARLINK-35455
OBJECT_ID      = 2025-240G
CENTER_NAME    = EARTH
REF_FRAME      = TEME
TIME_SYSTEM    = UTC
MEAN_ELEMENT_THEORY = SGP/SGP4

EPOCH          = 2025-11-20T23:26:33.056736
MEAN_MOTION    = 15.39634049
ECCENTRICITY   = .0001079
INCLINATION    = 53.1585
RA_OF_ASC_NODE = 209.2162
ARG_OF_PERICENTER = 91.6666
MEAN_ANOMALY   = 268.4462

EPHEMERIS_TYPE = 0
CLASSIFICATION_TYPE = U
NORAD_CAT_ID   = 66152
ELEMENT_SET_NO = 999
REV_AT_EPOCH   = 532
BSTAR          = .93298E-3
MEAN_MOTION_DOT = .37118E-3
MEAN_MOTION_DDOT = 0

CCSDS_OMM_VERS = 2.0
CREATION_DATE  = 
ORIGINATOR     = 

OBJECT_NAME    = STARLINK-34752
OBJECT_ID      = 2025-240H
CENTER_NAME    = EARTH
REF_FRAME      = TEME
TIME_SYSTEM    = UTC
MEAN_ELEMENT_THEORY = SGP/SGP4

EPOCH          = 2025-11-21T16:00:05.000256
MEAN_MOTION    = 15.39565283
ECCENTRICITY   = .0000848
INCLINATION    = 53.1593
RA_OF_ASC_NODE = 205.8034
ARG_OF_PERICENTER = 87.0947
MEAN_ANOMALY   = 220.3198

EPHEMERIS_TYPE = 0
CLASSIFICATION_TYPE = U
NORAD_CAT_ID   = 66153
ELEMENT_SET_NO = 999
REV_AT_EPOCH   = 551
BSTAR          = .14906E-2
MEAN_MOTION_DOT = .59583E-3
MEAN_MOTION_DDOT = 0

CCSDS_OMM_VERS = 2.0
CREATION_DATE  = 
ORIGINATOR     = 

OBJECT_NAME    = STARLINK-34625
OBJECT_ID      = 2025-240J
CENTER_NAME    = EARTH
REF_FRAME      = TEME
TIME_SYSTEM    = UTC
MEAN_ELEMENT_THEORY = SGP/SGP4

EPOCH          = 2025-11-21T16:00:05.000256
MEAN_MOTION    = 15.39522157
ECCENTRICITY   = .0000595
INCLINATION    = 53.1596
RA_OF_ASC_NODE = 205.6502
ARG_OF_PERICENTER = 69.0284
MEAN_ANOMALY   = 315.6004

EPHEMERIS_TYPE = 0
CLASSIFICATION_TYPE = U
NORAD_CAT_ID   = 66154
ELEMENT_SET_NO = 999
REV_AT_EPOCH   = 556
BSTAR          = .20467E-2
MEAN_MOTION_DOT = .82089E-3
MEAN_MOTION_DDOT = 0

