TJS-20                  
1 66142U 25238A   25325.52874095  .00000043  00000+0  00000+0 0  9991
2 66142   5.9357 300.4110 0001484  98.2780 274.9270  1.00269979   251
CZ-5 R/B                
1 66143U 25238B   25325.27417985  .00099356  16243-5  20039-2 0  9999
2 66143  16.2602 263.7257 7585995 182.0923 170.3537  1.95056524   579
SPAINSAT NG II          
1 66144U 25239A   25321.84156371 -.00000354  00000+0  00000+0 0  9991
2 66144  19.9038 243.4991 7869625 184.0240 159.6654  1.04198281   298
STARLINK-35318          
1 66146U 25240A   25324.98141404  .00050770  00000+0  12700-2 0  9993
2 66146  53.1585 209.2464 0001059  83.6833 276.4293 15.39640211  5375
STARLINK-33948          
1 66147U 25240B   25325.53712037 -.00041781  00000+0 -10376-2 0  9993
2 66147  53.1595 206.3134 0001538 127.2869 232.8277 15.39696847  5469
STARLINK-35081          
1 66148U 25240C   25325.19854242 -.00156518  00000+0 -28375-2 0  9994
2 66148  53.1594 207.7534 0001586 141.2386 218.8738 15.49558066  5367
STARLINK-35601          
1 66149U 25240D   25325.66672454  .00056910  00000+0  14244-2 0  9993
2 66149  53.1590 205.8546 0000921  93.6562 188.0005 15.39571990  5516
STARLINK-35605          
1 66150U 25240E   25325.52956745 -.00377955  00000+0 -82703-2 0  9990
2 66150  53.1591 206.2654 0002940 345.6158  14.4765 15.45001665  5416
STARLINK-35540          
1 66151U 25240F   25325.07598851  .00072665  00000+0  13011-2 0  9995
2 66151  53.1593 208.4111 0001029  79.0557 281.0568 15.49339382  5348
STARLINK-35455          
1 66152U 25240G   25324.97677149  .00037118  00000+0  93298-3 0  9992
2 66152  53.1585 209.2162 0001079  91.6666 268.4462 15.39634049  5328
STARLINK-34752          
1 66153U 25240H   25325.66672454  .00059583  00000+0  14906-2 0  9992
2 66153  53.1593 205.8034 0000848  87.0947 220.3198 15.39565283  5519
STARLINK-34625          
1 66154U 25240J   25325.66672454  .00082089  00000+0  20467-2 0  9999
2 66154  53.1596 205.6502 0000595  69.0284 315.6004 15.39522157  5566
